[{"OBJECT_NAME":"STARLINK-11525 [DTC]","OBJECT_ID":"2025-006N","EPOCH":"2025-11-29T04:55:42.790368","MEAN_MOTION":15.70852947,"ECCENTRICITY":0.0001207,"INCLINATION":43.0002,"RA_OF_ASC_NODE":26.0427,"ARG_OF_PERICENTER":270.7717,"MEAN_ANOMALY":89.3012,"EPHEMERIS_TYPE":0,"CLASSIFICATION_TYPE":"U","NORAD_CAT_ID":62566,"ELEMENT_SET_NO":999,"REV_AT_EPOCH":5079,"BSTAR":-0.00065515,"MEAN_MOTION_DOT":-0.00083716,"MEAN_MOTION_DDOT":0},{"OBJECT_NAME":"STARLINK-32752","OBJECT_ID":"2025-006P","EPOCH":"2025-11-28T11:37:34.671648","MEAN_MOTION":15.27591519,"ECCENTRICITY":0.00015553,"INCLINATION":42.9996,"RA_OF_ASC_NODE":144.2136,"ARG_OF_PERICENTER":258.3726,"MEAN_ANOMALY":101.6951,"EPHEMERIS_TYPE":0,"CLASSIFICATION_TYPE":"U","NORAD_CAT_ID":62567,"ELEMENT_SET_NO":999,"REV_AT_EPOCH":4938,"BSTAR":0.0008997075,"MEAN_MOTION_DOT":0.00024587,"MEAN_MOTION_DDOT":0},{"OBJECT_NAME":"STARLINK-32760","OBJECT_ID":"2025-006Q","EPOCH":"2025-11-28T11:44:58.938720","MEAN_MOTION":15.27630326,"ECCENTRICITY":0.00027179,"INCLINATION":42.9978,"RA_OF_ASC_NODE":144.237,"ARG_OF_PERICENTER":281.193,"MEAN_ANOMALY":78.8616,"EPHEMERIS_TYPE":0,"CLASSIFICATION_TYPE":"U","NORAD_CAT_ID":62568,"ELEMENT_SET_NO":999,"REV_AT_EPOCH":4938,"BSTAR":0.0015332207,"MEAN_MOTION_DOT":0.00042238,"MEAN_MOTION_DDOT":0},{"OBJECT_NAME":"STARLINK-32715","OBJECT_ID":"2025-006R","EPOCH":"2025-11-28T11:57:55.933920","MEAN_MOTION":15.27593705,"ECCENTRICITY":0.00027482,"INCLINATION":43.0018,"RA_OF_ASC_NODE":144.3189,"ARG_OF_PERICENTER":279.5335,"MEAN_ANOMALY":80.5206,"EPHEMERIS_TYPE":0,"CLASSIFICATION_TYPE":"U","NORAD_CAT_ID":62569,"ELEMENT_SET_NO":999,"REV_AT_EPOCH":4938,"BSTAR":0.00086558531,"MEAN_MOTION_DOT":0.00023644,"MEAN_MOTION_DDOT":0},{"OBJECT_NAME":"STARLINK-32764","OBJECT_ID":"2025-006S","EPOCH":"2025-11-29T03:50:35.033280","MEAN_MOTION":15.27604514,"ECCENTRICITY":0.000258,"INCLINATION":42.9967,"RA_OF_ASC_NODE":140.6782,"ARG_OF_PERICENTER":279.4136,"MEAN_ANOMALY":80.6424,"EPHEMERIS_TYPE":0,"CLASSIFICATION_TYPE":"U","NORAD_CAT_ID":62570,"ELEMENT_SET_NO":999,"REV_AT_EPOCH":4948,"BSTAR":0.00080743,"MEAN_MOTION_DOT":0.00022041,"MEAN_MOTION_DDOT":0},{"OBJECT_NAME":"STARLINK-32773","OBJECT_ID":"2025-006T","EPOCH":"2025-11-29T04:27:23.793120","MEAN_MOTION":15.27605105,"ECCENTRICITY":0.0001626,"INCLINATION":43.0033,"RA_OF_ASC_NODE":140.0234,"ARG_OF_PERICENTER":272.6681,"MEAN_ANOMALY":87.3984,"EPHEMERIS_TYPE":0,"CLASSIFICATION_TYPE":"U","NORAD_CAT_ID":62571,"ELEMENT_SET_NO":999,"REV_AT_EPOCH":4949,"BSTAR":0.00090915,"MEAN_MOTION_DOT":0.00024859,"MEAN_MOTION_DDOT":0},{"OBJECT_NAME":"STARLINK-32750","OBJECT_ID":"2025-006U","EPOCH":"2025-11-29T04:01:28.665696","MEAN_MOTION":15.27597833,"ECCENTRICITY":0.000127,"INCLINATION":42.9991,"RA_OF_ASC_NODE":139.8723,"ARG_OF_PERICENTER":273.6507,"MEAN_ANOMALY":86.42,"EPHEMERIS_TYPE":0,"CLASSIFICATION_TYPE":"U","NORAD_CAT_ID":62572,"ELEMENT_SET_NO":999,"REV_AT_EPOCH":4949,"BSTAR":0.00065006,"MEAN_MOTION_DOT":0.00017679,"MEAN_MOTION_DDOT":0},{"OBJECT_NAME":"STARLINK-32771","OBJECT_ID":"2025-006V","EPOCH":"2025-11-29T04:16:16.544064","MEAN_MOTION":15.27606445,"ECCENTRICITY":0.0002857,"INCLINATION":43.0014,"RA_OF_ASC_NODE":139.9584,"ARG_OF_PERICENTER":269.6919,"MEAN_ANOMALY":90.3605,"EPHEMERIS_TYPE":0,"CLASSIFICATION_TYPE":"U","NORAD_CAT_ID":62573,"ELEMENT_SET_NO":999,"REV_AT_EPOCH":4949,"BSTAR":0.0010324,"MEAN_MOTION_DOT":0.0002828,"MEAN_MOTION_DDOT":0},{"OBJECT_NAME":"STARLINK-32766","OBJECT_ID":"2025-006W","EPOCH":"2025-11-29T04:42:12.119040","MEAN_MOTION":15.27582798,"ECCENTRICITY":7.53e-5,"INCLINATION":42.9974,"RA_OF_ASC_NODE":140.0894,"ARG_OF_PERICENTER":289.5358,"MEAN_ANOMALY":70.5413,"EPHEMERIS_TYPE":0,"CLASSIFICATION_TYPE":"U","NORAD_CAT_ID":62574,"ELEMENT_SET_NO":999,"REV_AT_EPOCH":4949,"BSTAR":0.0010779,"MEAN_MOTION_DOT":0.0002952,"MEAN_MOTION_DDOT":0},{"OBJECT_NAME":"STARLINK-11547 [DTC]","OBJECT_ID":"2025-008A","EPOCH":"2025-11-29T02:41:34.658016","MEAN_MOTION":15.70852505,"ECCENTRICITY":0.0001299,"INCLINATION":42.9996,"RA_OF_ASC_NODE":12.6273,"ARG_OF_PERICENTER":281.318,"MEAN_ANOMALY":78.7542,"EPHEMERIS_TYPE":0,"CLASSIFICATION_TYPE":"U","NORAD_CAT_ID":62587,"ELEMENT_SET_NO":999,"REV_AT_EPOCH":5029,"BSTAR":0.0015582,"MEAN_MOTION_DOT":0.00204599,"MEAN_MOTION_DDOT":0},{"OBJECT_NAME":"STARLINK-11185 [DTC]","OBJECT_ID":"2025-008B","EPOCH":"2025-11-29T03:27:15.779232","MEAN_MOTION":15.7091218,"ECCENTRICITY":0.0001493,"INCLINATION":42.9989,"RA_OF_ASC_NODE":11.9865,"ARG_OF_PERICENTER":254.5515,"MEAN_ANOMALY":105.5188,"EPHEMERIS_TYPE":0,"CLASSIFICATION_TYPE":"U","NORAD_CAT_ID":62588,"ELEMENT_SET_NO":999,"REV_AT_EPOCH":5030,"BSTAR":0.0026033,"MEAN_MOTION_DOT":0.00349062,"MEAN_MOTION_DDOT":0},{"OBJECT_NAME":"STARLINK-11513 [DTC]","OBJECT_ID":"2025-008C","EPOCH":"2025-11-29T03:57:50.770944","MEAN_MOTION":15.70816837,"ECCENTRICITY":8.34e-5,"INCLINATION":42.9988,"RA_OF_ASC_NODE":12.1563,"ARG_OF_PERICENTER":237.3863,"MEAN_ANOMALY":122.6924,"EPHEMERIS_TYPE":0,"CLASSIFICATION_TYPE":"U","NORAD_CAT_ID":62589,"ELEMENT_SET_NO":999,"REV_AT_EPOCH":5030,"BSTAR":0.0016497,"MEAN_MOTION_DOT":0.00216633,"MEAN_MOTION_DDOT":0},{"OBJECT_NAME":"STARLINK-11397 [DTC]","OBJECT_ID":"2025-008D","EPOCH":"2025-11-29T03:04:19.744320","MEAN_MOTION":15.71006772,"ECCENTRICITY":0.0006685,"INCLINATION":42.9987,"RA_OF_ASC_NODE":11.8579,"ARG_OF_PERICENTER":293.2,"MEAN_ANOMALY":66.8164,"EPHEMERIS_TYPE":0,"CLASSIFICATION_TYPE":"U","NORAD_CAT_ID":62590,"ELEMENT_SET_NO":999,"REV_AT_EPOCH":5141,"BSTAR":0.0019339,"MEAN_MOTION_DOT":0.00257548,"MEAN_MOTION_DDOT":0},{"OBJECT_NAME":"STARLINK-11420 [DTC]","OBJECT_ID":"2025-008E","EPOCH":"2025-11-29T02:33:55.893024","MEAN_MOTION":15.7097311,"ECCENTRICITY":0.000225,"INCLINATION":42.995,"RA_OF_ASC_NODE":12.5809,"ARG_OF_PERICENTER":124.8917,"MEAN_ANOMALY":235.2163,"EPHEMERIS_TYPE":0,"CLASSIFICATION_TYPE":"U","NORAD_CAT_ID":62591,"ELEMENT_SET_NO":999,"REV_AT_EPOCH":5147,"BSTAR":0.0017039,"MEAN_MOTION_DOT":0.00225482,"MEAN_MOTION_DDOT":0},{"OBJECT_NAME":"STARLINK-11415 [DTC]","OBJECT_ID":"2025-008F","EPOCH":"2025-11-29T02:56:51.974592","MEAN_MOTION":15.70955946,"ECCENTRICITY":0.0001122,"INCLINATION":42.9984,"RA_OF_ASC_NODE":12.7108,"ARG_OF_PERICENTER":251.1555,"MEAN_ANOMALY":108.9191,"EPHEMERIS_TYPE":0,"CLASSIFICATION_TYPE":"U","NORAD_CAT_ID":62592,"ELEMENT_SET_NO":999,"REV_AT_EPOCH":5140,"BSTAR":0.0015893,"MEAN_MOTION_DOT":0.00209732,"MEAN_MOTION_DDOT":0},{"OBJECT_NAME":"STARLINK-11413 [DTC]","OBJECT_ID":"2025-008G","EPOCH":"2025-11-29T04:20:46.843008","MEAN_MOTION":15.70840634,"ECCENTRICITY":0.0001799,"INCLINATION":42.9999,"RA_OF_ASC_NODE":12.2838,"ARG_OF_PERICENTER":273.9281,"MEAN_ANOMALY":86.1381,"EPHEMERIS_TYPE":0,"CLASSIFICATION_TYPE":"U","NORAD_CAT_ID":62593,"ELEMENT_SET_NO":999,"REV_AT_EPOCH":5137,"BSTAR":0.0017818,"MEAN_MOTION_DOT":0.00234759,"MEAN_MOTION_DDOT":0}]
