STARLINK-11525 [DTC]    
1 62566U 25006N   25333.20535637 -.00083716  00000+0 -65515-3 0  9996
2 62566  43.0002  26.0427 0001207 270.7717  89.3012 15.70852947 50790
STARLINK-32752          
1 62567U 25006P   25332.48442907  .00024587  00000+0  89971-3 0  9994
2 62567  42.9996 144.2136 0001555 258.3726 101.6951 15.27591519 49389
STARLINK-32760          
1 62568U 25006Q   25332.48957105  .00042238  00000+0  15332-2 0  9998
2 62568  42.9978 144.2370 0002717 281.1930  78.8616 15.27630326 49385
STARLINK-32715          
1 62569U 25006R   25332.49856405  .00023644  00000+0  86559-3 0  9991
2 62569  43.0018 144.3189 0002748 279.5335  80.5206 15.27593705 49380
STARLINK-32764          
1 62570U 25006S   25333.16012770  .00022041  00000+0  80743-3 0  9996
2 62570  42.9967 140.6782 0002580 279.4136  80.6424 15.27604514 49488
STARLINK-32773          
1 62571U 25006T   25333.18569205  .00024859  00000+0  90915-3 0  9990
2 62571  43.0033 140.0234 0001626 272.6681  87.3984 15.27605105 49494
STARLINK-32750          
1 62572U 25006U   25333.16769289  .00017679  00000+0  65006-3 0  9998
2 62572  42.9991 139.8723 0001270 273.6507  86.4200 15.27597833 49497
STARLINK-32771          
1 62573U 25006V   25333.17796926  .00028280  00000+0  10324-2 0  9990
2 62573  43.0014 139.9584 0002857 269.6919  90.3605 15.27606445 49499
STARLINK-32766          
1 62574U 25006W   25333.19597360  .00029520  00000+0  10779-2 0  9996
2 62574  42.9974 140.0894 0000753 289.5358  70.5413 15.27582798 49492
STARLINK-11547 [DTC]    
1 62587U 25008A   25333.11220669  .00204599  00000+0  15582-2 0  9997
2 62587  42.9996  12.6273 0001299 281.3180  78.7542 15.70852505 50291
STARLINK-11185 [DTC]    
1 62588U 25008B   25333.14393263  .00349062  00000+0  26033-2 0  9990
2 62588  42.9989  11.9865 0001493 254.5515 105.5188 15.70912180 50306
STARLINK-11513 [DTC]    
1 62589U 25008C   25333.16517096  .00216633  00000+0  16497-2 0  9995
2 62589  42.9988  12.1563 0000834 237.3863 122.6924 15.70816837 50307
STARLINK-11397 [DTC]    
1 62590U 25008D   25333.12800630  .00257548  00000+0  19339-2 0  9990
2 62590  42.9987  11.8579 0006685 293.2000  66.8164 15.71006772 51413
STARLINK-11420 [DTC]    
1 62591U 25008E   25333.10689691  .00225482  00000+0  17039-2 0  9998
2 62591  42.9950  12.5809 0002250 124.8917 235.2163 15.70973110 51473
STARLINK-11415 [DTC]    
1 62592U 25008F   25333.12282378  .00209732  00000+0  15893-2 0  9998
2 62592  42.9984  12.7108 0001122 251.1555 108.9191 15.70955946 51401
STARLINK-11413 [DTC]    
1 62593U 25008G   25333.18109772  .00234759  00000+0  17818-2 0  9997
2 62593  42.9999  12.2838 0001799 273.9281  86.1381 15.70840634 51372
